[{"OBJECT_NAME":"STARLINK-4290","OBJECT_ID":"2022-076W","EPOCH":"2026-03-09T19:11:43.136448","MEAN_MOTION":15.08829243,"ECCENTRICITY":0.00011862,"INCLINATION":53.2164,"RA_OF_ASC_NODE":93.6263,"ARG_OF_PERICENTER":83.7192,"MEAN_ANOMALY":276.3935,"EPHEMERIS_TYPE":0,"CLASSIFICATION_TYPE":"U","NORAD_CAT_ID":53006,"ELEMENT_SET_NO":999,"REV_AT_EPOCH":20286,"BSTAR":3.5950734e-5,"MEAN_MOTION_DOT":2.84e-6,"MEAN_MOTION_DDOT":0},{"OBJECT_NAME":"KSLV-II R\/B","OBJECT_ID":"2025-274P","EPOCH":"2026-03-09T17:44:44.185056","MEAN_MOTION":14.98166503,"ECCENTRICITY":0.00605567,"INCLINATION":97.7452,"RA_OF_ASC_NODE":0.3618,"ARG_OF_PERICENTER":19.961,"MEAN_ANOMALY":340.3962,"EPHEMERIS_TYPE":0,"CLASSIFICATION_TYPE":"U","NORAD_CAT_ID":66663,"ELEMENT_SET_NO":999,"REV_AT_EPOCH":1543,"BSTAR":0.00059831331,"MEAN_MOTION_DOT":7.309e-5,"MEAN_MOTION_DDOT":0}]
